full_name,a,e,i,om,w,q,ad,per_y,data_arc,condition_code,diameter,H
" 28365 (1999 GF14)",2.699659107467275,.08378888105118468,14.07399528946444,31.34956172571857,176.0128463374236,2.473457691632952,2.925860523301597,4.43579630240443,9012,0,,13.3
" 19188 Dittebesard (1991 YT)",2.699950727314501,.1773430287246249,11.70090475387939,265.9486799117704,140.722180208429,2.221133287925294,3.178768166703709,4.43651506047035,10960,0,4.983,13.4
" 44234 (1998 QE29)",2.70009087015142,.1900765601193137,11.71288484272364,292.3244040821938,95.79236462405592,2.186866885543473,3.213314854759366,4.43686048559327,14657,0,,13.7
"  8711 Lukeasher (1994 LL)",2.700174188300773,.06169697685827593,27.21485105386614,148.7218092010046,17.76497011931117,2.533581603891867,2.86676677270968,4.43706585304615,8520,0,13.575,13.5
" 18339 (1989 GM2)",2.70018517518624,.1677822555083677,6.07714046617991,216.6872067205507,297.1032765324629,2.247142016203236,3.153228334169244,4.4370929344012,10406,0,6.943,14.0
"  6763 Kochiny (1981 RA2)",2.700243523830382,.2462095894122007,11.47293848659286,252.1457704892594,85.04117543178629,2.035417674515149,3.365069373145614,4.43723675773469,24198,0,7.138,13.4
" 10746 Muhlhausen (1989 CE6)",2.700391391157127,.1557879554137927,12.11097638915933,325.7249792240029,315.5050221761524,2.279702937511751,3.121079844802503,4.43760124226029,14696,0,5.334,13.2
" 81754 (2000 JW58)",2.700432422968431,.1968235139126724,13.1760726017867,214.7928712566784,150.0238110015922,2.168923824396072,3.231941021540789,4.43770238510337,6168,0,3.974,14.0
" 16833 (1997 WX21)",2.700461976745602,.1308098704125667,12.81327063648559,353.9208278312483,240.4806992852173,2.347214895513446,3.053709057977758,4.43777523522831,9992,0,,13.0
" 40759 (1999 TY9)",2.7005275469262,.1529026629700495,7.113853835455253,246.4973090549539,266.3203907739482,2.287609693577209,3.113445400275192,4.43793686728932,10023,0,4.682,14.0
" 13417 (1999 VH6)",2.700643225961584,.07311007547165647,7.230843797090645,213.7238829974883,126.2163036258412,2.503198995889515,2.898087456033654,4.43822202365857,16546,0,9.955,13.2
" 91408 (1999 NP11)",2.700649925488799,.09831546577378024,11.84115393205179,311.1102134956396,199.502380321337,2.435134270172443,2.966165580805155,4.43823853861734,6654,0,4.453,14.0
"  7342 Uchinoura (1992 FB1)",2.700733404487374,.09947023654489197,13.85832558223805,160.6939507671235,347.2129467300654,2.432090813898323,2.969375995076425,4.4384443238442,23152,0,5.972,13.1
" 32491 (2000 UU107)",2.700736351621542,.1234725596446853,14.78924908319362,82.44880840688188,145.7581681441766,2.367269521361381,3.034203181881703,4.43845158892327,7148,0,5.412,13.8
" 22119 (2000 SA101)",2.700922687141239,.1092216025988264,11.78289166312433,275.2385970237984,209.4910773817302,2.405923582756144,2.995921791526333,4.43891093889727,9514,0,7.188,13.1
" 19156 Heco (1990 SE4)",2.700927916924332,.006610342842106849,1.244113378794947,213.3126144481299,272.6376557568327,2.683073857401645,2.718781976447019,4.43892383146509,10051,0,5.797,13.5
"  8916 (1996 CC)",2.70096506596932,.1293409342066016,19.48054452486902,61.25432905004338,328.342161171134,2.351619721077453,3.050310410861187,4.43901541240683,10124,0,8.005,13.6
" 32618 Leungkamcheung (2001 QL293)",2.701032020482499,.02389088890293183,1.556832035212244,256.9895824170794,199.994236770961,2.63650196455789,2.765562076407108,4.43918047227464,9922,0,4.360,13.8
" 30392 (2000 KX26)",2.701126101055082,.2263533689485906,12.75937622948188,248.861567423693,13.61576169922126,2.089717108126293,3.312535093983871,4.43941240822034,10846,0,4.602,13.9
" 33708 (1999 LE10)",2.70114295538925,.1479167138226326,12.75308900301041,195.7296093931158,227.8635531637536,2.301598765862919,3.100687144915582,4.43945395947757,7068,0,,13.6
" 49432 (1998 YD)",2.70114444231973,.04366212131394443,20.87818305144032,287.8844519459696,223.2443282494545,2.583206745992679,2.819082138646781,4.43945762523708,10005,0,4.681,13.3
"  6508 Rolcik (1982 QM)",2.7012513623525,.2121882494563115,6.196584943669933,151.2861347624755,212.2445969244814,2.128077564433446,3.274425160271553,4.43972121998113,27322,0,11.751,13.6
" 34366 Rosavestal (2000 RP36)",2.701278558729417,.112298428181912,8.148993264745348,38.69314730610007,7.11036279678048,2.397929222502603,3.004627894956231,4.43978826925909,9031,0,7.556,13.9
" 54204 (2000 HX80)",2.701314749373288,.2076161304651156,15.20083683015631,164.2971520517097,193.8706912832417,2.140478233940062,3.262151264806513,4.43987749330474,6616,0,3.730,14.0
" 57629 (2001 TY168)",2.701367265797226,.05548724513897139,20.95908824571005,251.9510503497375,210.3300164644031,2.551475838109542,2.85125869348491,4.4400069678256,6569,0,,14.0
"  9376 Thionville (1993 OU7)",2.701499543125576,.04551468083032931,2.018997603027368,164.2988741872696,194.5379802720821,2.578541653656935,2.824457432594217,4.4403330912613,11295,0,5.520,13.4
" 17901 (1999 FT25)",2.701533833220842,.0709313942572901,2.867549941218436,191.6683741177486,98.38930162383227,2.509910271797246,2.893157394644437,4.4404176331567,14125,0,,13.9
"  6215 Mehdia (1973 EK)",2.701659154524306,.06738651339789448,1.643811238986578,197.3455467774272,325.8440568347107,2.51960376371141,2.883714545337203,4.44072661617171,16426,0,13.314,13.4
" 12034 (1997 CR)",2.70167538830662,.1759291365080837,13.47376315988269,137.4421854020189,209.5363451842607,2.226371970116694,3.176978806496546,4.44076664151912,10022,0,5.879,13.6
" 36188 (1999 TD37)",2.701820611304405,.1479851453664632,13.2382226741203,61.13162267293126,195.9112617215941,2.301991295386416,3.101649927222394,4.44112470273172,7243,0,7.030,13.0
"  9537 Nolan (1982 BM)",2.701864055221724,.1436103234299629,3.440360394221235,307.2623915639081,204.3245794618186,2.313848484387541,3.089879626055906,4.44123181974155,23578,0,11.395,13.4
"  5344 Ryabov (1978 RN)",2.701871574996439,.165009169826207,7.096636064266383,173.885934879376,229.3427353933053,2.25603798942925,3.147705160563627,4.44125036087757,17460,0,10.835,13.2
" 18213 (4607 P-L)",2.702011303969978,.1177018008721627,5.418279857668246,18.64294075745939,183.9473575122538,2.383979707515771,3.020042900424185,4.44159488838018,20737,0,,13.9
" 12669 (1979 MY5)",2.702039525036354,.1123411166999958,11.80290050905675,277.6686461483116,347.8251707320708,2.398489387426244,3.005589662646464,4.44166447369498,14129,0,5.737,13.4
"  9844 Otani (1989 WF1)",2.702079542361382,.2179092650257226,12.93588663589522,60.71629746878246,353.3653835207183,2.113271375244372,3.290887709478392,4.44176314593165,24634,0,,14.0
" 13113 Williamyeats (1993 RQ5)",2.702097346901882,.04904349085884328,7.061909229395343,183.2308965174834,301.5554672664815,2.569577060369395,2.834617633434369,4.44180704749757,14126,0,8.656,13.7
" 34614 (2000 UF19)",2.702138302820019,.1495203145653554,14.21100361214918,127.4016910897258,195.1902205951895,2.298113733783274,3.106162871856764,4.44190803514816,7123,0,5.731,13.8
" 33716 (1999 LF26)",2.702527823218052,.1779121561732092,8.315021295961055,106.3599813971681,180.5509340603034,2.221715271071239,3.183340375364865,4.44286853898486,7185,0,4.557,14.0
" 62389 (2000 SE165)",2.702631763953462,.1135210163515417,12.30519212346234,252.525944322255,285.9569338664692,2.395826259285505,3.009437268621419,4.44312485427207,6567,0,,13.8
" 12102 Piazzolla (1998 JB4)",2.70272163429142,.1296944936715271,12.21415585284746,211.7149815895141,27.76765285004097,2.352193520396912,3.053249748185928,4.44334647627977,9972,0,4.903,13.7
" 13082 Gutierrez (1992 EY10)",2.70298647386345,.1573274044809873,14.22823584969299,344.1898240315997,351.454278953686,2.277732627583297,3.128240320143603,4.44399959726258,11814,0,,13.8
" 23613 (1996 EK6)",2.7031584981268,.1083860914583826,7.411935232436536,173.3862630427689,122.3597950520174,2.410173713922325,2.996143282331275,4.4444238435144,8896,0,9.188,13.7
" 18643 van Rysselberghe (1998 EK12)",2.70325848154564,.09547315970493313,10.39384322429652,27.0598905317294,316.5858631611519,2.445169852813318,2.961347110277962,4.444670428833,17056,0,5.755,13.3
"  9877 (1993 ST3)",2.703273555207699,.2323531514896971,7.749840416924812,43.84365160090405,317.6205381844055,2.075159425316432,3.331387685098965,4.44470760483033,10316,0,8.261,13.1
" 17757 (1998 DG15)",2.703329628442652,.06236483271358462,12.80579705868329,162.9488263309513,160.2521275266579,2.534736928395149,2.871922328490155,4.44484589850714,9069,0,5.849,13.4
" 14711 (2000 CG36)",2.703418869674004,.05611262450469872,6.655568762142356,307.2793585522271,300.4415225070391,2.551722941761069,2.855114797586938,4.4450659975235,14126,0,4.223,13.9
" 71102 (1999 XH144)",2.703491334170905,.1925787633636629,15.00603538329894,62.00207226252427,342.9387374964464,2.182856316271893,3.224126352069917,4.44524472211923,7568,0,4.493,14.0
" 18515 (1996 TL14)",2.703555664752582,.1225691518440321,11.7688405827662,2.571481773147822,12.61976331712803,2.372183139960729,3.034928189544434,4.44540338744,8484,0,,13.7
" 25730 (2000 AY189)",2.703593841440087,.1927255408060126,12.90783984288804,218.0318762245516,153.9830016751737,2.182542256228741,3.224645426651433,4.44549754753662,16430,0,7.293,13.2
" 19256 (1994 WA4)",2.703619792394743,.08369159289069504,11.71458452159058,208.9823223369675,251.3965383483277,2.477349545398416,2.929890039391069,4.44556155410837,23078,0,5.974,13.5
" 56938 (2000 RO65)",2.703779585678224,.1239051672348036,13.40979304649027,25.0669069314822,207.2694335586662,2.368767323948715,3.038791847407732,4.44595568203413,8432,0,,13.3
" 32136 (2000 LN18)",2.703893752817851,.06499891388943722,7.413442956925786,226.5481880183863,259.6275271630768,2.528143595612256,2.879643910023446,4.44623728083971,13207,0,8.751,13.6
"  4701 Milani (1986 VW6)",2.704022674242176,.1403783705228697,3.674370347954406,104.633174689765,288.2987753731003,2.324436377375168,3.083608971109185,4.44655527895365,23282,0,14.462,13.1
" 15827 (1995 AO1)",2.70408412490585,.3150983755974083,10.08924280507917,210.6891904422998,308.3608325825935,1.852031609669278,3.556136640142423,4.44670685608055,8554,0,6.109,13.8
